CZ-2C R/B               
1 28222U 04012C   17193.25332384  .00000707  00000-0  47154-4 0  9993
2 28222  97.5267 149.2744 0050005  99.4858  39.2652 15.09261120724353
SL-16 R/B               
1 28353U 04021B   17193.04627569 -.00000199  00000-0 -79272-4 0  9990
2 28353  71.0003  26.3335 0004804 189.5357 170.5675 14.14200772675669
CZ-2C R/B               
1 28480U 04046B   17193.22204319  .00000013  00000-0  19873-4 0  9996
2 28480  98.1968 287.8012 0142753 150.2729 240.5622 14.25642598657781
ARIANE 5 R/B            
1 28499U 04049H   17193.20301677  .00000077  00000-0  16794-4 0  9991
2 28499  98.0783 276.3661 0093493 134.3124 278.4134 14.79823780677655
CZ-2D R/B               
1 28738U 05024B   17193.09756421  .00000428  00000-0  29287-4 0  9990
2 28738  97.4949 229.4875 0010631 280.5019  79.5013 15.11168680659579
SUZAKU (ASTRO-EII)      
1 28773U 05025A   17193.21542667  .00000819  00000-0  37310-4 0  9999
2 28773  31.3822 134.1223 0004914 238.1733 121.8436 15.15854165661176
ALOS (DAICHI)           
1 28931U 06002A   17193.24955104  .00000198  00000-0  47879-4 0  9999
2 28931  97.8424 219.3506 0000780 123.0341 237.0936 14.62367923611128
H-2A R/B                
1 28932U 06002B   17193.26391333  .00000001  00000-0  65942-5 0  9995
2 28932  98.2064 117.1636 0088820 228.8149 284.7555 14.91389229621430
AKARI (ASTRO-F)         
1 28939U 06005A   17193.24359085  .00002440  00000-0  76374-4 0  9990
2 28939  98.2510  37.1218 0107986  99.4559 261.8903 15.28773993616929
RESURS-DK 1             
1 29228U 06021A   17193.27854557  .00000068  00000-0  12549-4 0  9995
2 29228  69.9355  34.2413 0007405 290.2170  69.8194 15.02170088611867
GENESIS 1               
1 29252U 06029A   17193.20652204  .00000362  00000-0  28593-4 0  9991
2 29252  64.5034 203.7975 0018452 320.7907  39.1877 15.16806029605548
CZ-4B R/B               
1 29507U 06046C   17193.01829667  .00000072  00000-0  10659-4 0  9993
2 29507  97.7827 200.5910 0046613 154.1045 206.2526 15.00065991584716
CZ-2C R/B               
1 31114U 07010B   17193.22589817 -.00000009  00000-0  14802-4 0  9990
2 31114  98.3961  94.4069 0060436 142.0405 218.5055 14.19245746531058
COSMO-SKYMED 1          
1 31598U 07023A   17193.21990424  .00000378  00000-0  54045-4 0  9990
2 31598  97.8868  16.5597 0001415  95.8019 264.3332 14.82155153546159
GENESIS 2               
1 31789U 07028A   17193.26345937  .00000292  00000-0  25556-4 0  9995
2 31789  64.5033 241.6428 0027845 221.8359 138.0635 15.16082183552715
COSMOS 2428             
1 31792U 07029A   17193.20593463  .00000232  00000-0  15202-3 0  9993
2 31792  70.9190 359.5781 0011441 240.8306 119.1670 14.12286208517510
SL-16 R/B               
1 31793U 07029B   17192.48284640 -.00000312  00000-0 -13810-3 0  9991
2 31793  70.9747 338.1299 0001967 266.1097 150.3710 14.14381676518156
KORONAS-FOTON           
1 33504U 09003A   17193.13706044  .00000439  00000-0  21802-4 0  9996
2 33504  82.4409 208.1882 0020179  28.4163 331.8164 15.14846427465155
TIANGONG 1              
1 37820U 11053A   17193.06203947  .00019838  00000-0  10512-3 0  9993
2 37820  42.7591  47.5373 0019925 257.3197 234.1904 15.79860834331909
CZ-3B R/B               
1 38253U 12018D   17193.13160811  .01378391  62699-5  32104-3 0  9997
2 38253  54.8379 103.2786 1203680 319.3251  32.3555 13.60344730131638
H-2A R/B                
1 38341U 12025E   17193.19356535  .00000179  00000-0  28559-4 0  9997
2 38341  98.4335 271.6125 0057189  78.3693 282.3930 14.83586628278581
CUSAT 2 & FALCON 9 R/B  
1 39271U 13055G   17192.89836741  .00007857  00000-0  19986-3 0  9995
2 39271  80.9698 330.9861 0632785 129.1528 236.7674 14.37511018196173
ALOS-2                  
1 39766U 14029A   17193.20675519  .00000111  00000-0  21693-4 0  9991
2 39766  97.9221 290.1716 0001492  85.9885 274.1505 14.79472812169306
SL-27 R/B               
1 40354U 14084B   17193.26050262  .00001119  00000-0  30336-4 0  9998
2 40354  74.7401  81.2235 0038522  91.3078 269.2547 15.38218169143311
ASTRO-H (HITOMI)        
1 41337U 16012A   17192.43958540  .00000275  00000-0  15495-4 0  9998
2 41337  31.0068 325.1203 0012617 280.2798  79.6414 14.98318501 76562
TIANGONG-2              
1 41765U 16057A   17193.23780258  .00003240  00000-0  46800-4 0  9999
2 41765  42.7808 205.9694 0002098  22.6202  92.5748 15.58034521 46898
